STARLINK-1631
1 16151C 20057AL  21326.12694735  .00000970  00000-0  64976-4 0  3268
2 16151  53.0514 138.1768 0001770  80.0757 310.9791 15.06396150    10
